satname,norad_id,inclination_deg,eccentricity,mean_motion_rev_per_day,perigee_km,apogee_km,l1,l2
STARLINK-1558,46035,53.0651,0.0001864,15.10117999,534.5510471842463,537.1285777399335,1 46035U 20055J   26062.75002314  .00111087  00000+0  66515-2 0  9990,2 46035  53.0651 153.2618 0001864  96.4845 134.6674 15.10117999  5550
STARLINK-1560,46036,53.0621,9.99e-05,15.08926473,538.7880183726684,540.1701580670951,1 46036U 20055K   26062.75002314  .01499655  00000+0  86777-1 0  9993,2 46036  53.0621 153.2762 0000999  87.7104 217.3329 15.08926473  5803
STARLINK-1567,46038,53.0553,6.99e-05,15.06986929,544.9293327820924,545.8972451124864,1 46038U 20055M   26062.63935467  .00126783  00000+0  82470-2 0  9991,2 46038  53.0553 153.7776 0000699 103.5668 256.5399 15.06986929307973
STARLINK-1569,46039,53.0694,0.000223,15.10775839,532.2912534947009,535.3739919464342,1 46039U 20055N   26062.75002314  .00106014  00000+0  62389-2 0  9993,2 46039  53.0694 153.2437 0002230  88.1337 132.7650 15.10775839  5705
STARLINK-1582,46043,53.0573,0.0002133,15.07394402,542.6890074491512,545.6420617104031,1 46043U 20055S   26062.75002314  .01460452  00000+0  87058-1 0  9997,2 46043  53.0573 153.2830 0002133  78.3981  81.2722 15.07394402  5809
STARLINK-1591,46045,53.0743,9.05e-05,15.11796287,530.0966788207043,531.3471822871343,1 46045U 20055U   26062.75002314  .00104957  00000+0  60059-2 0  9996,2 46045  53.0743 153.2093 0000905  36.5254  23.9939 15.11796287  5811
STARLINK-1524,46047,53.1554,0.0001226,15.29377258,476.8322076655295,478.5132522113108,1 46047U 20055W   26062.64173103  .00005416  00000+0  19975-3 0  9993,2 46047  53.1554 141.8929 0001226  82.0712 278.0427 15.29377258308146
STARLINK-1527,46048,53.1549,0.0002523,15.29277163,476.2420836219144,479.7016761627092,1 46048U 20055X   26062.65089115  .00040022  00000+0  13951-2 0  9993,2 46048  53.1549 141.9775 0002523  59.6762 300.4487 15.29277163308125
STARLINK-1540,46051,53.1571,0.0001341,15.29360845,476.80240992094514,478.64115124589716,1 46051U 20055AA  26062.54215993  .00015135  00000+0  53566-3 0  9994,2 46051  53.1571 142.3763 0001341  97.2765 262.8388 15.29360845308147
STARLINK-1541,46052,53.1546,0.0001241,15.29344823,476.9188455448302,478.62048157872596,1 46052U 20055AB  26062.75002314  .00030634  00000+0  10699-2 0  9999,2 46052  53.1546 141.4675 0001241  80.3293  35.7579 15.29344823  5769
STARLINK-1543,46053,53.1562,0.0001318,15.29353197,476.8410319151353,478.6482423146781,1 46053U 20055AC  26062.60401168 -.00000085  00000+0  93922-5 0  9995,2 46053  53.1562 142.1620 0001318  90.4492 269.6659 15.29353197308143
STARLINK-1548,46054,53.1562,0.0001103,15.29303828,477.1359640573819,478.6484040953901,1 46054U 20055AD  26062.66668981  .00070652  00000+0  24414-2 0  9993,2 46054  53.1562 141.8755 0001103  66.5162 238.4831 15.29303828  5752
STARLINK-1554,46055,53.1554,0.0001462,15.29364553,476.7083741259794,478.71302399318483,1 46055U 20055AE  26062.75002314  .00031729  00000+0  11069-2 0  9990,2 46055  53.1554 141.6227 0001462  72.0290 338.2161 15.29364553  5801
STARLINK-1564,46058,53.157,6.61e-05,15.29612052,476.51801581100335,477.4242611069076,1 46058U 20055AH  26062.60862781  .00107537  00000+0  36564-2 0  9997,2 46058  53.1570 142.6140 0000661  95.2770 264.8306 15.29612052308134
STARLINK-1570,46059,53.1572,0.0001306,15.2935245,476.85149114847627,478.6422480152114,1 46059U 20055AJ  26062.63780889 -.00000869  00000+0 -17788-4 0  9990,2 46059  53.1572 142.0172 0001306  89.8960 270.2190 15.29352450308105
STARLINK-1572,46060,53.1544,0.0001156,15.29354588,476.9479405726097,478.53301944598843,1 46060U 20055AK  26062.75002314  .00027398  00000+0  95833-3 0  9995,2 46060  53.1544 141.6468 0001156  83.7044 113.7141 15.29354588  5811
STARLINK-1573,46061,53.1611,0.0001313,15.30216911,474.2647381895513,476.0644151835886,1 46061U 20055AL  26062.62229080  .00011080  00000+0  38546-3 0  9992,2 46061  53.1611 142.0449 0001313  86.0034 274.1116 15.30216911308146
STARLINK-1577,46063,53.1548,0.0001261,15.29354129,476.8773254405887,478.60637808700267,1 46063U 20055AN  26062.64793543  .00009519  00000+0  34181-3 0  9991,2 46063  53.1548 141.8899 0001261  96.9694 263.1449 15.29354129308146
STARLINK-1583,46064,53.158,0.0001312,15.29356107,476.83644984371585,478.6354309032695,1 46064U 20055AP  26062.48614667  .00000745  00000+0  38143-4 0  9998,2 46064  53.1580 142.6569 0001312  87.3502 272.7649 15.29356107308118
STARLINK-1525,46066,53.0522,0.0001482,15.08636137,539.3412645355556,541.3919089986739,1 46066U 20055AR  26062.75002314  .00028660  00000+0  18215-2 0  9992,2 46066  53.0522 123.2684 0001482  58.9446  33.1531 15.08636137  5706
STARLINK-1536,46070,53.0551,0.0001345,15.06397155,546.2888169134267,548.1517380210644,1 46070U 20055AV  26062.44714448 -.00000655  00000+0 -25055-4 0  9999,2 46070  53.0551 124.6421 0001345  96.6358 263.4784 15.06397155308375
STARLINK-1542,46073,53.0536,0.0001298,15.06403505,546.3019067904497,548.0997244873897,1 46073U 20055AY  26062.57246129  .00001249  00000+0  10269-3 0  9990,2 46073  53.0536 124.0804 0001298  82.3383 277.7754 15.06403505308380
STARLINK-1549,46074,53.055,0.0001441,15.06403492,546.2029142969177,548.1987966668667,1 46074U 20055AZ  26062.49137091  .00000521  00000+0  53860-4 0  9996,2 46074  53.0550 124.4448 0001441  86.7227 273.3927 15.06403492308367
STARLINK-1551,46075,53.0558,0.0001367,15.06408075,546.2401175721088,548.1335011015817,1 46075U 20055BA  26062.38447900  .00000295  00000+0  38693-4 0  9993,2 46075  53.0558 124.9248 0001367  88.0165 272.0981 15.06408075308359
STARLINK-1552,46076,53.0564,0.000247,15.06408376,545.4753320705449,548.8964415766368,1 46076U 20055BB  26062.60931950 -.00002224  00000+0 -13039-3 0  9994,2 46076  53.0564 123.9120 0002470 111.0125 249.1129 15.06408376308379
STARLINK-1559,46077,53.0271,0.0003921,15.28883926,476.4587064850657,481.8361889489661,1 46077U 20055BC  26062.41671110  .00040982  00000+0  14451-2 0  9992,2 46077  53.0271 103.1295 0003921  14.5190 345.5920 15.28883926308629
STARLINK-1566,46079,53.0549,0.0001537,15.06404406,546.1336302179388,548.2624782136045,1 46079U 20055BE  26062.42871218  .00002440  00000+0  18260-3 0  9996,2 46079  53.0549 124.7276 0001537  91.6226 268.4939 15.06404406308366
STARLINK-1568,46080,53.0617,0.0005148,15.45415013,426.6540007477952,433.66382221825734,1 46080U 20055BF  26062.28853914  .00041864  00000+0  86543-3 0  9997,2 46080  53.0617  63.5079 0005148 123.6872 236.4626 15.45415013309201
